STARLINK-30401          
1 57818U 23138L   24224.10884518  .00008078  00000+0  61251-3 0  9995
2 57818  43.0013 123.6250 0001593 270.9478  89.1182 15.02528822 52029
STARLINK-30390          
1 57819U 23138M   24224.10550206  .00000493  00000+0  51597-4 0  9996
2 57819  43.0028 123.6015 0001214 279.6556  80.4149 15.02538068 52062
STARLINK-30409          
1 57820U 23138N   24224.09217906  .00002358  00000+0  18960-3 0  9991
2 57820  43.0027 123.4833 0001287 275.6779  84.3917 15.02534919 52070
STARLINK-30415          
1 57821U 23138P   24223.16593341 -.00000619  00000+0 -30731-4 0  9990
2 57821  43.0006 128.5886 0001355 270.0279  90.0408 15.02532208 51989
STARLINK-30417          
1 57822U 23138Q   24224.02314586  .01262721  00000+0  95344-2 0  9991
2 57822  42.9826  85.2980 0038358 256.3926 103.2667 15.68161464 52452
STARLINK-30407          
1 57823U 23138R   24224.09883609  .00001560  00000+0  13047-3 0  9998
2 57823  42.9990 123.5389 0001265 275.8396  84.2302 15.02544621 52124
STARLINK-30408          
1 57824U 23138S   24223.09834639 -.00001431  00000+0 -90880-4 0  9997
2 57824  43.0011 128.9454 0001090 284.3216  75.7505 15.02536972 51977
STARLINK-30377          
1 57825U 23138T   24224.07884994  .00018539  00000+0  13823-2 0  9991
2 57825  43.0015 123.3974 0001420 240.6131 119.4570 15.02576827 52024
STARLINK-30422          
1 57826U 23138U   24224.08217896  .00002746  00000+0  21821-3 0  9995
2 57826  43.0034 123.4252 0000676 295.3445  64.7327 15.02549771 52124
STARLINK-30402          
1 57827U 23138V   24223.08946232  .00000297  00000+0  37064-4 0  9994
2 57827  43.0047 128.8717 0001675 263.6906  96.3745 15.02536977 51975
STARLINK-30411          
1 57828U 23138W   24224.08883401  .00004574  00000+0  35334-3 0  9993
2 57828  43.0028 123.4504 0001703 275.9286  84.1362 15.02552061 52062
STARLINK-30418          
1 57829U 23138X   24224.07553333  .00007276  00000+0  55310-3 0  9999
2 57829  43.0012 123.3778 0001448 256.4302 103.6379 15.02536472 51968
STARLINK-30285          
1 57840U 23141A   24223.82741829  .00005115  00000+0  19714-3 0  9995
2 57840  53.1624  80.8675 0001250 108.3675 251.7461 15.28029749 52133
STARLINK-30410          
1 57841U 23141B   24224.01001466  .00041645  00000+0  15065-2 0  9996
2 57841  53.1687  80.3809 0001375  95.4071 264.7086 15.28047062 52158
STARLINK-30435          
1 57842U 23141C   24223.87452466  .00006430  00000+0  24451-3 0  9993
2 57842  53.1662  80.9936 0001678  62.9775 297.1396 15.28031398 52132
STARLINK-30423          
1 57843U 23141D   24223.93022097  .00003876  00000+0  15242-3 0  9993
2 57843  53.1639  80.5922 0000974 116.6305 243.4794 15.28043377 52149
STARLINK-30292          
1 57844U 23141E   24224.04278514  .00016100  00000+0  59221-3 0  9993
2 57844  53.1604  80.7949 0000894  47.6076 312.5000 15.28045153 52155
STARLINK-30419          
1 57845U 23141F   24223.81446778  .00007254  00000+0  27419-3 0  9991
2 57845  53.1330  64.1928 0001377  68.1676 291.9470 15.28031326 52356
STARLINK-30420          
1 57846U 23141G   24223.86408432  .00000723  00000+0  38768-4 0  9996
2 57846  53.1576  77.9052 0001528  44.0753 316.0369 15.28019361 52177
STARLINK-30416          
1 57847U 23141H   24223.88813972 -.00008863  00000+0 -30789-3 0  9997
2 57847  53.1601  80.5054 0001135 104.8165 255.2961 15.28000785 52144
STARLINK-30426          
1 57848U 23141J   24223.85545868  .00030441  00000+0  11064-2 0  9990
2 57848  53.1627  80.8042 0001283 124.2680 235.8442 15.28042207 52137
STARLINK-30430          
1 57849U 23141K   24223.88848128 -.00001807  00000+0 -52617-4 0  9996
2 57849  53.1607  80.5482 0000921  92.1547 267.9558 15.28009327 52145
STARLINK-30425          
1 57850U 23141L   24223.85078240  .00003488  00000+0  13851-3 0  9996
2 57850  53.1616  80.7835 0001419  94.0115 266.1047 15.28021412 52138
STARLINK-30405          
1 57851U 23141M   24223.93049328  .00009320  00000+0  34859-3 0  9993
2 57851  53.1626  80.0426 0001561 118.2966 241.8191 15.28030850 52158
STARLINK-30431          
1 57852U 23141N   24223.92601524  .00025024  00000+0  91212-3 0  9990
2 57852  53.1625  81.4884 0001329  68.5465 291.5676 15.28053463 52148
STARLINK-30404          
1 57853U 23141P   24223.92635278  .00032409  00000+0  11771-2 0  9990
2 57853  53.1616  81.4927 0001569  53.5885 306.5259 15.28033757 52130
STARLINK-30412          
1 57854U 23141Q   24223.85592895  .00031116  00000+0  11304-2 0  9996
2 57854  53.1611  81.7612 0001236 111.3812 248.7320 15.28046840 52126
STARLINK-30392          
1 57855U 23141R   24223.85625045 -.00000370  00000+0 -67645-6 0  9994
2 57855  53.1614  81.7655 0001170 100.3961 259.7170 15.28043946 52126
STARLINK-30291          
1 57856U 23141S   24223.84623043  .00013993  00000+0  51659-3 0  9998
2 57856  53.1594  81.6991 0001164 107.5189 252.5938 15.28039589 52121
STARLINK-30424          
1 57857U 23141T   24224.16667824  .01372397  00000+0  41391-1 0  9997
2 57857  53.1589  68.0022 0000969  63.6357 127.3184 15.30719240 52350
STARLINK-30290          
1 57858U 23141U   24223.85123072  .00001548  00000+0  68506-4 0  9991
2 57858  53.1613  81.7304 0001201 106.5332 253.5799 15.28044057 52127
STARLINK-30414          
1 57859U 23141V   24223.85158062  .00032573  00000+0  11827-2 0  9993
2 57859  53.1609  81.7328 0001081 105.8171 254.2948 15.28041929 52127
STARLINK-30272          
1 57860U 23141W   24224.03810751  .00032870  00000+0  11926-2 0  9996
2 57860  53.1590  80.7653 0001320 118.0630 242.0504 15.28061304 52177
STARLINK-30432          
1 57864U 23144A   24223.31336483  .00000494  00000+0  51633-4 0  9996
2 57864  43.0020 179.7769 0000782 274.3197  85.7556 15.02544224 50861
STARLINK-30427          
1 57865U 23144B   24222.91117404 -.00001305  00000+0 -81543-4 0  9999
2 57865  43.0035 181.9178 0001010 276.5637  83.5091 15.02544479 50801
STARLINK-30393          
1 57866U 23144C   24223.98468611  .00000530  00000+0  54313-4 0  9999
2 57866  43.0015 175.3530 0000944 265.5770  94.4965 15.02541698 50968
STARLINK-30439          
1 57867U 23144D   24222.57545230 -.00000193  00000+0  77966-6 0  9994
2 57867  43.0026 183.7009 0001022 274.9404  85.1322 15.02538865 50798
STARLINK-30442          
1 57868U 23144E   24224.03462472 -.00009490  00000+0 -68767-3 0  9990
2 57868  42.9999 175.6883 0000959 263.7087  96.3646 15.02574209 50961
STARLINK-30441          
1 57869U 23144F   24223.84851447  .00000828  00000+0  76355-4 0  9990
2 57869  43.0030 176.8627 0000811 260.0207 100.0544 15.02539168 50943
STARLINK-30460          
1 57870U 23144G   24222.90118363  .00000095  00000+0  22081-4 0  9994
2 57870  43.0020 181.8420 0000962 272.5184  87.5548 15.02534288 50840
STARLINK-30444          
1 57871U 23144H   24223.89168823  .00001712  00000+0  14175-3 0  9991
2 57871  43.0016 176.3733 0000799 237.4117 122.6648 15.02544796 50720
STARLINK-30446          
1 57872U 23144J   24224.11793284 -.00000157  00000+0  34703-5 0  9997
2 57872  43.0036 161.8521 0001491 264.1644  95.9029 15.02532643 50878
STARLINK-30445          
1 57873U 23144K   24223.23024247  .00000084  00000+0  21251-4 0  9997
2 57873  43.0021 180.0188 0000932 279.9483  80.1254 15.02535902 50854
STARLINK-30447          
1 57874U 23144L   24223.86234868 -.00000859  00000+0 -48555-4 0  9997
2 57874  42.9979 150.8763 0001163 256.6383 103.4330 15.02528039 51282
STARLINK-30434          
1 57875U 23144M   24224.08445903  .00001105  00000+0  96831-4 0  9990
2 57875  43.0010 175.2384 0001070 247.5759 112.4970 15.02541911 51031
STARLINK-30429          
1 57876U 23144N   24224.14760528 -.00000698  00000+0 -36608-4 0  9995
2 57876  43.0065 174.8523 0001115 248.9823 111.0900 15.02551685 51047
STARLINK-30284          
1 57877U 23144P   24224.07203903 -.00001879  00000+0 -12414-3 0  9997
2 57877  43.0016 136.9090 0001126 272.3309  87.7405 15.02523147 51472
STARLINK-30433          
1 57878U 23144Q   24224.14428039  .00000808  00000+0  74901-4 0  9994
2 57878  43.0019 174.8256 0001156 261.9521  98.1190 15.02540478 51040
STARLINK-30358          
1 57879U 23144R   24224.14206273 -.00000107  00000+0  71381-5 0  9992
2 57879  43.0047 174.8114 0001494 272.9498  87.1173 15.02532533 51047
STARLINK-30436          
1 57880U 23144S   24223.93485523  .00000683  00000+0  65599-4 0  9998
2 57880  43.0047 175.8382 0001215 262.5508  97.5196 15.02545102 51007
STARLINK-30406          
1 57881U 23144T   24223.87744638  .00097920  00000+0  43436-2 0  9991
2 57881  42.9936 166.8797 0019982 164.5153 195.6310 15.20368044 51118
STARLINK-30339          
1 57882U 23144U   24224.13096439  .00000947  00000+0  85128-4 0  9990
2 57882  43.0001 174.7305 0000923 273.8169  86.2568 15.02533853 51047
STARLINK-30282          
1 57883U 23144V   24223.92597617  .00001372  00000+0  11660-3 0  9993
2 57883  43.0055 175.7695 0001671 266.5295  93.5357 15.02538197 51009
STARLINK-30340          
1 57884U 23144W   24223.32323824  .00002816  00000+0  22344-3 0  9990
2 57884  43.0017 178.9831 0000767 270.1735  89.9020 15.02537529 50913
STARLINK-30279          
1 57885U 23144X   24223.85838722  .00000689  00000+0  66044-4 0  9999
2 57885  43.0007 176.1264 0000934 263.0950  96.9786 15.02545465 50936
STARLINK-30465          
1 57891U 23146A   24223.39590602  .00001224  00000+0  10562-3 0  9998
2 57891  43.0002 205.0298 0000820 288.6233  71.4520 15.02546119 50276
STARLINK-30470          
1 57892U 23146B   24223.99087848  .00000596  00000+0  59207-4 0  9999
2 57892  43.0003 201.7522 0000926 281.4059  78.6679 15.02536661 50360
STARLINK-30473          
1 57893U 23146C   24223.03687596  .00000124  00000+0  24211-4 0  9995
2 57893  43.0020 206.5734 0001116 267.8672  92.2043 15.02551794 50326
STARLINK-30443          
1 57894U 23146D   24223.45239914 -.00001429  00000+0 -90731-4 0  9990
2 57894  43.0014 204.5916 0000639 278.9644  81.1126 15.02540536 50388
